start=new Date('2023-02-16T00:00:00.000Z').valueOf();
sats=[{"COUNTRY_CODE":"US","DECAY_DATE":null,"MEAN_ELEMENT_THEORY":"SGP4","EPOCH":"2023-02-15T21:42:09.817920","PERIOD":"95.437","TLE_LINE2":"2 51144  53.2117 277.0609 0001284  83.0136 277.1002 15.08846415 59996","CLASSIFICATION_TYPE":"U","OBJECT_NAME":"STARLINK-3185","OBJECT_ID":"2022-005AS","MEAN_MOTION_DDOT":"0.0000000000000","ELEMENT_SET_NO":"999","LAUNCH_DATE":"2022-01-19","PERIAPSIS":"538.838","INCLINATION":"53.2117","RCS_SIZE":"LARGE","APOAPSIS":"540.614","MEAN_MOTION_DOT":"0.00002945","GP_ID":"225552060","ECCENTRICITY":"0.00012840","REV_AT_EPOCH":"5999","FILE":"3795153","OBJECT_TYPE":"PAYLOAD","BSTAR":"0.00020302000000","NORAD_CAT_ID":"51144","TIME_SYSTEM":"UTC","EPHEMERIS_TYPE":"0","MEAN_ANOMALY":"277.1002","REF_FRAME":"TEME","RA_OF_ASC_NODE":"277.0609","MEAN_MOTION":"15.08846415","SITE":"AFETR","CENTER_NAME":"EARTH","ARG_OF_PERICENTER":"83.0136","SEMIMAJOR_AXIS":"6917.861","TLE_LINE1":"1 51144U 22005AS  23046.90428030  .00002945  00000-0  20302-3 0  9995"},{"OBJECT_NAME":"STARLINK-3365","CLASSIFICATION_TYPE":"U","TLE_LINE2":"2 51145  53.2151 287.1578 0001056 105.9097 254.2012 15.08846833 60958","PERIOD":"95.437","EPOCH":"2023-02-15T21:09:01.775520","MEAN_ELEMENT_THEORY":"SGP4","DECAY_DATE":null,"COUNTRY_CODE":"US","RCS_SIZE":"LARGE","APOAPSIS":"540.455","INCLINATION":"53.2151","PERIAPSIS":"538.994","LAUNCH_DATE":"2022-01-19","ELEMENT_SET_NO":"999","MEAN_MOTION_DDOT":"0.0000000000000","OBJECT_ID":"2022-005AT","EPHEMERIS_TYPE":"0","NORAD_CAT_ID":"51145","TIME_SYSTEM":"UTC","MEAN_ANOMALY":"254.2012","BSTAR":"0.00133750000000","OBJECT_TYPE":"PAYLOAD","FILE":"3794435","REV_AT_EPOCH":"6095","GP_ID":"225513371","ECCENTRICITY":"0.00010560","MEAN_MOTION_DOT":"0.00021066","TLE_LINE1":"1 51145U 22005AT  23046.88127055  .00021066  00000-0  13375-2 0  9992","SEMIMAJOR_AXIS":"6917.860","ARG_OF_PERICENTER":"105.9097","CENTER_NAME":"EARTH","SITE":"AFETR","MEAN_MOTION":"15.08846833","RA_OF_ASC_NODE":"287.1578","REF_FRAME":"TEME"},{"TLE_LINE2":"2 51146  53.2137 277.0263 0001332 104.9065 255.2075 15.08858517 59986","CLASSIFICATION_TYPE":"U","OBJECT_NAME":"STARLINK-3354","EPOCH":"2023-02-15T21:52:45.462720","PERIOD":"95.436","MEAN_ELEMENT_THEORY":"SGP4","DECAY_DATE":null,"COUNTRY_CODE":"US","RCS_SIZE":"LARGE","APOAPSIS":"540.610","INCLINATION":"53.2137","PERIAPSIS":"538.767","LAUNCH_DATE":"2022-01-19","ELEMENT_SET_NO":"999","MEAN_MOTION_DDOT":"0.0000000000000","OBJECT_ID":"2022-005AU","EPHEMERIS_TYPE":"0","NORAD_CAT_ID":"51146","MEAN_ANOMALY":"255.2075","TIME_SYSTEM":"UTC","BSTAR":"0.00057856000000","FILE":"3795153","OBJECT_TYPE":"PAYLOAD","REV_AT_EPOCH":"5998","GP_ID":"225553548","ECCENTRICITY":"0.00013320","MEAN_MOTION_DOT":"0.00008936","TLE_LINE1":"1 51146U 22005AU  23046.91163730  .00008936  00000-0  57856-3 0  9991","ARG_OF_PERICENTER":"104.9065","SEMIMAJOR_AXIS":"6917.824","CENTER_NAME":"EARTH","SITE":"AFETR","MEAN_MOTION":"15.08858517","RA_OF_ASC_NODE":"277.0263","REF_FRAME":"TEME"},{"RA_OF_ASC_NODE":"287.1299","REF_FRAME":"TEME","MEAN_MOTION":"15.08857877","CENTER_NAME":"EARTH","SITE":"AFETR","TLE_LINE1":"1 51147U 22005AV  23046.88863882  .00018029  00000-0  11474-2 0  9992","ARG_OF_PERICENTER":"56.9889","SEMIMAJOR_AXIS":"6917.826","GP_ID":"225553790","ECCENTRICITY":"0.00008470","MEAN_MOTION_DOT":"0.00018029","FILE":"3795153","OBJECT_TYPE":"PAYLOAD","REV_AT_EPOCH":"5984","NORAD_CAT_ID":"51147","EPHEMERIS_TYPE":"0","MEAN_ANOMALY":"303.1184","TIME_SYSTEM":"UTC","BSTAR":"0.00114740000000","MEAN_MOTION_DDOT":"0.0000000000000","OBJECT_ID":"2022-005AV","LAUNCH_DATE":"2022-01-19","ELEMENT_SET_NO":"999","INCLINATION":"53.2131","PERIAPSIS":"539.105","RCS_SIZE":"LARGE","APOAPSIS":"540.277","DECAY_DATE":null,"COUNTRY_CODE":"US","MEAN_ELEMENT_THEORY":"SGP4","EPOCH":"2023-02-15T21:19:38.394048","PERIOD":"95.436","TLE_LINE2":"2 51147  53.2131 287.1299 0000847  56.9889 303.1184 15.08857877 59849","CLASSIFICATION_TYPE":"U","OBJECT_NAME":"STARLINK-3352"},{"REV_AT_EPOCH":"5984","OBJECT_TYPE":"PAYLOAD","FILE":"3795153","BSTAR":"0.00028616000000","EPHEMERIS_TYPE":"0","NORAD_CAT_ID":"51148","MEAN_ANOMALY":"284.8788","TIME_SYSTEM":"UTC","MEAN_MOTION_DOT":"0.00004271","ECCENTRICITY":"0.00012480","GP_ID":"225552554","SITE":"AFETR","CENTER_NAME":"EARTH","SEMIMAJOR_AXIS":"6917.839","ARG_OF_PERICENTER":"75.2343","TLE_LINE1":"1 51148U 22005AW  23046.87855862  .00004271  00000-0  28616-3 0  9992","REF_FRAME":"TEME","RA_OF_ASC_NODE":"287.1810","MEAN_MOTION":"15.08853505","PERIOD":"95.437","EPOCH":"2023-02-15T21:05:07.464768","OBJECT_NAME":"STARLINK-3359","CLASSIFICATION_TYPE":"U","TLE_LINE2":"2 51148  53.2154 287.1810 0001248  75.2343 284.8788 15.08853505 59848","COUNTRY_CODE":"US","DECAY_DATE":null,"MEAN_ELEMENT_THEORY":"SGP4","PERIAPSIS":"538.841","INCLINATION":"53.2154","APOAPSIS":"540.567","RCS_SIZE":"LARGE","OBJECT_ID":"2022-005AW","MEAN_MOTION_DDOT":"0.0000000000000","ELEMENT_SET_NO":"999","LAUNCH_DATE":"2022-01-19"},{"APOAPSIS":"540.428","RCS_SIZE":"LARGE","INCLINATION":"53.2159","PERIAPSIS":"539.037","LAUNCH_DATE":"2022-01-19","ELEMENT_SET_NO":"999","MEAN_MOTION_DDOT":"0.0000000000000","OBJECT_ID":"2022-005AX","TLE_LINE2":"2 51149  53.2159 287.1864 0001005  90.3593 269.7514 15.08844178 59844","CLASSIFICATION_TYPE":"U","OBJECT_NAME":"STARLINK-3360","EPOCH":"2023-02-15T20:58:26.717376","PERIOD":"95.437","MEAN_ELEMENT_THEORY":"SGP4","DECAY_DATE":null,"COUNTRY_CODE":"US","TLE_LINE1":"1 51149U 22005AX  23046.87392034  .00001862  00000-0  13501-3 0  9990","ARG_OF_PERICENTER":"90.3593","SEMIMAJOR_AXIS":"6917.868","CENTER_NAME":"EARTH","SITE":"AFETR","MEAN_MOTION":"15.08844178","RA_OF_ASC_NODE":"287.1864","REF_FRAME":"TEME","NORAD_CAT_ID":"51149","EPHEMERIS_TYPE":"0","MEAN_ANOMALY":"269.7514","TIME_SYSTEM":"UTC","BSTAR":"0.00013501000000","FILE":"3795153","OBJECT_TYPE":"PAYLOAD","REV_AT_EPOCH":"5984","ECCENTRICITY":"0.00010050","GP_ID":"225552802","MEAN_MOTION_DOT":"0.00001862"},{"MEAN_MOTION":"15.08849679","RA_OF_ASC_NODE":"277.0965","REF_FRAME":"TEME","TLE_LINE1":"1 51150U 22005AY  23046.89692054  .00004634  00000-0  30896-3 0  9995","SEMIMAJOR_AXIS":"6917.851","ARG_OF_PERICENTER":"82.7199","CENTER_NAME":"EARTH","SITE":"AFETR","GP_ID":"225553055","ECCENTRICITY":"0.00012440","MEAN_MOTION_DOT":"0.00004634","NORAD_CAT_ID":"51150","TIME_SYSTEM":"UTC","EPHEMERIS_TYPE":"0","MEAN_ANOMALY":"277.3934","BSTAR":"0.00030896000000","OBJECT_TYPE":"PAYLOAD","FILE":"3795153","REV_AT_EPOCH":"5999","LAUNCH_DATE":"2022-01-19","ELEMENT_SET_NO":"999","MEAN_MOTION_DDOT":"0.0000000000000","OBJECT_ID":"2022-005AY","APOAPSIS":"540.576","RCS_SIZE":"LARGE","INCLINATION":"53.2131","PERIAPSIS":"538.855","MEAN_ELEMENT_THEORY":"SGP4","DECAY_DATE":null,"COUNTRY_CODE":"US","OBJECT_NAME":"STARLINK-3357","CLASSIFICATION_TYPE":"U","TLE_LINE2":"2 51150  53.2131 277.0965 0001244  82.7199 277.3934 15.08849679 59996","PERIOD":"95.437","EPOCH":"2023-02-15T21:31:33.934656"},{"GP_ID":"225553297","ECCENTRICITY":"0.00013530","MEAN_MOTION_DOT":"0.00013293","NORAD_CAT_ID":"51151","EPHEMERIS_TYPE":"0","TIME_SYSTEM":"UTC","MEAN_ANOMALY":"283.1607","BSTAR":"0.00085127000000","FILE":"3795153","OBJECT_TYPE":"PAYLOAD","REV_AT_EPOCH":"5984","MEAN_MOTION":"15.08859072","RA_OF_ASC_NODE":"287.2224","REF_FRAME":"TEME","TLE_LINE1":"1 51151U 22005AZ  23046.86656238  .00013293  00000-0  85127-3 0  9995","ARG_OF_PERICENTER":"76.9536","SEMIMAJOR_AXIS":"6917.822","CENTER_NAME":"EARTH","SITE":"AFETR","MEAN_ELEMENT_THEORY":"SGP4","DECAY_DATE":null,"COUNTRY_CODE":"US","CLASSIFICATION_TYPE":"U","TLE_LINE2":"2 51151  53.2180 287.2224 0001353  76.9536 283.1607 15.08859072 59847","OBJECT_NAME":"STARLINK-3361","EPOCH":"2023-02-15T20:47:50.989632","PERIOD":"95.436","LAUNCH_DATE":"2022-01-19","ELEMENT_SET_NO":"999","MEAN_MOTION_DDOT":"0.0000000000000","OBJECT_ID":"2022-005AZ","RCS_SIZE":"LARGE","APOAPSIS":"540.623","INCLINATION":"53.2180","PERIAPSIS":"538.751"},{"INCLINATION":"53.2158","PERIAPSIS":"538.622","RCS_SIZE":"LARGE","APOAPSIS":"540.764","MEAN_MOTION_DDOT":"0.0000000000000","OBJECT_ID":"2022-005BA","LAUNCH_DATE":"2022-01-19","ELEMENT_SET_NO":"999","EPOCH":"2023-02-15T22:28:31.683648","PERIOD":"95.436","CLASSIFICATION_TYPE":"U","TLE_LINE2":"2 51152  53.2158 286.9122 0001548  92.4535 267.6634 15.08857261 60964","OBJECT_NAME":"STARLINK-3364","DECAY_DATE":null,"COUNTRY_CODE":"US","MEAN_ELEMENT_THEORY":"SGP4","CENTER_NAME":"EARTH","SITE":"AFETR","TLE_LINE1":"1 51152U 22005BA  23046.93647782  .00014780  00000-0  94431-3 0  9998","ARG_OF_PERICENTER":"92.4535","SEMIMAJOR_AXIS":"6917.828","RA_OF_ASC_NODE":"286.9122","REF_FRAME":"TEME","MEAN_MOTION":"15.08857261","FILE":"3794464","OBJECT_TYPE":"PAYLOAD","REV_AT_EPOCH":"6096","EPHEMERIS_TYPE":"0","NORAD_CAT_ID":"51152","TIME_SYSTEM":"UTC","MEAN_ANOMALY":"267.6634","BSTAR":"0.00094431000000","ECCENTRICITY":"0.00015480","GP_ID":"225514089","MEAN_MOTION_DOT":"0.00014780"},{"SEMIMAJOR_AXIS":"6917.869","ARG_OF_PERICENTER":"90.0482","TLE_LINE1":"1 51460U 22010E   23046.55283900  .00001650  00000-0  12170-3 0  9994","SITE":"AFETR","CENTER_NAME":"EARTH","MEAN_MOTION":"15.08843864","REF_FRAME":"TEME","RA_OF_ASC_NODE":"258.6365","BSTAR":"0.00012170000000","NORAD_CAT_ID":"51460","EPHEMERIS_TYPE":"0","MEAN_ANOMALY":"270.0682","TIME_SYSTEM":"UTC","REV_AT_EPOCH":"5846","OBJECT_TYPE":"PAYLOAD","FILE":"3794864","MEAN_MOTION_DOT":"0.00001650","ECCENTRICITY":"0.00015050","GP_ID":"225523881","APOAPSIS":"540.775","RCS_SIZE":"LARGE","PERIAPSIS":"538.692","INCLINATION":"53.2123","ELEMENT_SET_NO":"999","LAUNCH_DATE":"2022-02-03","OBJECT_ID":"2022-010E","MEAN_MOTION_DDOT":"0.0000000000000","OBJECT_NAME":"STARLINK-3167","TLE_LINE2":"2 51460  53.2123 258.6365 0001505  90.0482 270.0682 15.08843864 58468","CLASSIFICATION_TYPE":"U","PERIOD":"95.437","EPOCH":"2023-02-15T13:16:05.289600","MEAN_ELEMENT_THEORY":"SGP4","COUNTRY_CODE":"US","DECAY_DATE":null}];
